FENGYUN 1C DEB          
1 30665U 99025APX 17345.79193486  .00000471  00000-0  34326-3 0  9995
2 30665  99.0378 271.9487 0088162   0.8385  61.9451 13.99314653550296
